ASTROCAST-0401          
1 55110U 23001DF  26068.71172895  .00009750  00000+0  37868-3 0  9995
2 55110  97.5547 160.5206 0008142 188.4231 171.6872 15.26258462176022
STARLINK-31312          
1 59152U 24044A   26068.31670944  .00000647  00000+0  33040-4 0  9992
2 59152  43.0017  58.4291 0001232 266.5226  93.5484 15.27574682114124
